[{"OBJECT_NAME":"ONEWEB-0582","OBJECT_ID":"2022-166H","EPOCH":"2026-01-31T02:53:51.195552","MEAN_MOTION":13.21827796,"ECCENTRICITY":0.00018692,"INCLINATION":87.9197,"RA_OF_ASC_NODE":271.3206,"ARG_OF_PERICENTER":66.4184,"MEAN_ANOMALY":293.7146,"EPHEMERIS_TYPE":0,"CLASSIFICATION_TYPE":"U","NORAD_CAT_ID":54649,"ELEMENT_SET_NO":999,"REV_AT_EPOCH":15341,"BSTAR":9.6640386e-5,"MEAN_MOTION_DOT":5.3e-7,"MEAN_MOTION_DDOT":0},{"OBJECT_NAME":"ONEWEB-0583","OBJECT_ID":"2022-166J","EPOCH":"2026-01-31T03:10:26.823360","MEAN_MOTION":13.21827824,"ECCENTRICITY":0.00014992,"INCLINATION":87.9196,"RA_OF_ASC_NODE":271.3419,"ARG_OF_PERICENTER":75.0788,"MEAN_ANOMALY":285.0512,"EPHEMERIS_TYPE":0,"CLASSIFICATION_TYPE":"U","NORAD_CAT_ID":54650,"ELEMENT_SET_NO":999,"REV_AT_EPOCH":15342,"BSTAR":0.00020549222,"MEAN_MOTION_DOT":9.8e-7,"MEAN_MOTION_DDOT":0},{"OBJECT_NAME":"ONEWEB-0584","OBJECT_ID":"2022-166K","EPOCH":"2026-01-31T03:38:53.006496","MEAN_MOTION":13.21828314,"ECCENTRICITY":0.0001844,"INCLINATION":87.9201,"RA_OF_ASC_NODE":271.3254,"ARG_OF_PERICENTER":75.0599,"MEAN_ANOMALY":285.0739,"EPHEMERIS_TYPE":0,"CLASSIFICATION_TYPE":"U","NORAD_CAT_ID":54651,"ELEMENT_SET_NO":999,"REV_AT_EPOCH":15341,"BSTAR":0.00037810013,"MEAN_MOTION_DOT":1.69e-6,"MEAN_MOTION_DDOT":0},{"OBJECT_NAME":"ONEWEB-0585","OBJECT_ID":"2022-166L","EPOCH":"2026-01-31T04:14:25.524384","MEAN_MOTION":13.21824566,"ECCENTRICITY":0.00015322,"INCLINATION":87.9199,"RA_OF_ASC_NODE":271.3049,"ARG_OF_PERICENTER":84.7209,"MEAN_ANOMALY":275.4099,"EPHEMERIS_TYPE":0,"CLASSIFICATION_TYPE":"U","NORAD_CAT_ID":54652,"ELEMENT_SET_NO":999,"REV_AT_EPOCH":15342,"BSTAR":0.00015684907,"MEAN_MOTION_DOT":7.8e-7,"MEAN_MOTION_DDOT":0},{"OBJECT_NAME":"ONEWEB-0586","OBJECT_ID":"2022-166M","EPOCH":"2026-01-31T02:44:22.333632","MEAN_MOTION":13.21824378,"ECCENTRICITY":0.00015735,"INCLINATION":87.9199,"RA_OF_ASC_NODE":271.3426,"ARG_OF_PERICENTER":75.6815,"MEAN_ANOMALY":284.4494,"EPHEMERIS_TYPE":0,"CLASSIFICATION_TYPE":"U","NORAD_CAT_ID":54653,"ELEMENT_SET_NO":999,"REV_AT_EPOCH":15341,"BSTAR":0.00019738001,"MEAN_MOTION_DOT":9.5e-7,"MEAN_MOTION_DDOT":0},{"OBJECT_NAME":"ONEWEB-0587","OBJECT_ID":"2022-166N","EPOCH":"2026-01-31T02:58:35.573376","MEAN_MOTION":13.21827787,"ECCENTRICITY":0.00014467,"INCLINATION":87.9205,"RA_OF_ASC_NODE":271.3009,"ARG_OF_PERICENTER":94.8502,"MEAN_ANOMALY":265.2797,"EPHEMERIS_TYPE":0,"CLASSIFICATION_TYPE":"U","NORAD_CAT_ID":54654,"ELEMENT_SET_NO":999,"REV_AT_EPOCH":15357,"BSTAR":0.00013252717,"MEAN_MOTION_DOT":6.8e-7,"MEAN_MOTION_DDOT":0},{"OBJECT_NAME":"ONEWEB-0589","OBJECT_ID":"2022-166P","EPOCH":"2026-01-30T23:01:37.828704","MEAN_MOTION":13.21827677,"ECCENTRICITY":0.000224,"INCLINATION":87.9198,"RA_OF_ASC_NODE":271.3637,"ARG_OF_PERICENTER":66.2685,"MEAN_ANOMALY":293.8684,"EPHEMERIS_TYPE":0,"CLASSIFICATION_TYPE":"U","NORAD_CAT_ID":54655,"ELEMENT_SET_NO":999,"REV_AT_EPOCH":15341,"BSTAR":8.6466e-5,"MEAN_MOTION_DOT":4.9e-7,"MEAN_MOTION_DDOT":0},{"OBJECT_NAME":"ONEWEB-0590","OBJECT_ID":"2022-166Q","EPOCH":"2026-01-31T03:14:58.843392","MEAN_MOTION":13.21827922,"ECCENTRICITY":0.00018893,"INCLINATION":87.9199,"RA_OF_ASC_NODE":271.3058,"ARG_OF_PERICENTER":88.941,"MEAN_ANOMALY":271.1941,"EPHEMERIS_TYPE":0,"CLASSIFICATION_TYPE":"U","NORAD_CAT_ID":54656,"ELEMENT_SET_NO":999,"REV_AT_EPOCH":15342,"BSTAR":0.00025428528,"MEAN_MOTION_DOT":1.18e-6,"MEAN_MOTION_DDOT":0},{"OBJECT_NAME":"ONEWEB-0591","OBJECT_ID":"2022-166R","EPOCH":"2026-01-31T05:20:46.875264","MEAN_MOTION":13.21825321,"ECCENTRICITY":0.00016399,"INCLINATION":87.9199,"RA_OF_ASC_NODE":271.3114,"ARG_OF_PERICENTER":83.9929,"MEAN_ANOMALY":276.1392,"EPHEMERIS_TYPE":0,"CLASSIFICATION_TYPE":"U","NORAD_CAT_ID":54657,"ELEMENT_SET_NO":999,"REV_AT_EPOCH":15346,"BSTAR":0.00019772672,"MEAN_MOTION_DOT":9.5e-7,"MEAN_MOTION_DDOT":0},{"OBJECT_NAME":"ONEWEB-0592","OBJECT_ID":"2022-166S","EPOCH":"2026-01-31T03:36:31.552416","MEAN_MOTION":13.21825476,"ECCENTRICITY":0.00016221,"INCLINATION":87.9208,"RA_OF_ASC_NODE":271.2936,"ARG_OF_PERICENTER":80.8659,"MEAN_ANOMALY":279.2658,"EPHEMERIS_TYPE":0,"CLASSIFICATION_TYPE":"U","NORAD_CAT_ID":54658,"ELEMENT_SET_NO":999,"REV_AT_EPOCH":15333,"BSTAR":9.9393194e-5,"MEAN_MOTION_DOT":5.4e-7,"MEAN_MOTION_DDOT":0},{"OBJECT_NAME":"ONEWEB-0593","OBJECT_ID":"2022-166T","EPOCH":"2026-01-31T04:09:40.655808","MEAN_MOTION":13.21827629,"ECCENTRICITY":0.00015259,"INCLINATION":87.9199,"RA_OF_ASC_NODE":271.3114,"ARG_OF_PERICENTER":74.9758,"MEAN_ANOMALY":285.1544,"EPHEMERIS_TYPE":0,"CLASSIFICATION_TYPE":"U","NORAD_CAT_ID":54659,"ELEMENT_SET_NO":999,"REV_AT_EPOCH":15344,"BSTAR":0.00016188138,"MEAN_MOTION_DOT":8.0e-7,"MEAN_MOTION_DDOT":0},{"OBJECT_NAME":"ONEWEB-0594","OBJECT_ID":"2022-166U","EPOCH":"2026-01-31T02:49:07.574592","MEAN_MOTION":13.21824662,"ECCENTRICITY":0.00014828,"INCLINATION":87.9195,"RA_OF_ASC_NODE":271.3405,"ARG_OF_PERICENTER":81.5321,"MEAN_ANOMALY":278.5981,"EPHEMERIS_TYPE":0,"CLASSIFICATION_TYPE":"U","NORAD_CAT_ID":54660,"ELEMENT_SET_NO":999,"REV_AT_EPOCH":15345,"BSTAR":1.892292e-6,"MEAN_MOTION_DOT":1.4e-7,"MEAN_MOTION_DDOT":0},{"OBJECT_NAME":"ONEWEB-0595","OBJECT_ID":"2022-166V","EPOCH":"2026-01-31T04:04:56.100864","MEAN_MOTION":13.21825146,"ECCENTRICITY":0.00015275,"INCLINATION":87.9195,"RA_OF_ASC_NODE":271.3019,"ARG_OF_PERICENTER":89.5758,"MEAN_ANOMALY":270.5551,"EPHEMERIS_TYPE":0,"CLASSIFICATION_TYPE":"U","NORAD_CAT_ID":54661,"ELEMENT_SET_NO":999,"REV_AT_EPOCH":15343,"BSTAR":-0.00044659771,"MEAN_MOTION_DOT":-1.71e-6,"MEAN_MOTION_DDOT":0},{"OBJECT_NAME":"ONEWEB-0596","OBJECT_ID":"2022-166W","EPOCH":"2026-01-31T05:16:02.091360","MEAN_MOTION":13.21824737,"ECCENTRICITY":0.000157,"INCLINATION":87.9199,"RA_OF_ASC_NODE":271.31,"ARG_OF_PERICENTER":83.6805,"MEAN_ANOMALY":276.4508,"EPHEMERIS_TYPE":0,"CLASSIFICATION_TYPE":"U","NORAD_CAT_ID":54662,"ELEMENT_SET_NO":999,"REV_AT_EPOCH":15344,"BSTAR":9.0652484e-5,"MEAN_MOTION_DOT":5.0e-7,"MEAN_MOTION_DDOT":0},{"OBJECT_NAME":"ONEWEB-0597","OBJECT_ID":"2022-166X","EPOCH":"2026-01-31T01:11:57.736320","MEAN_MOTION":13.2182844,"ECCENTRICITY":0.00016064,"INCLINATION":87.9201,"RA_OF_ASC_NODE":271.3489,"ARG_OF_PERICENTER":76.9366,"MEAN_ANOMALY":283.1947,"EPHEMERIS_TYPE":0,"CLASSIFICATION_TYPE":"U","NORAD_CAT_ID":54663,"ELEMENT_SET_NO":999,"REV_AT_EPOCH":15342,"BSTAR":0.00020343458,"MEAN_MOTION_DOT":9.7e-7,"MEAN_MOTION_DDOT":0},{"OBJECT_NAME":"ONEWEB-0600","OBJECT_ID":"2022-166Y","EPOCH":"2026-01-31T02:34:54.334848","MEAN_MOTION":13.21827183,"ECCENTRICITY":0.00015112,"INCLINATION":87.9198,"RA_OF_ASC_NODE":271.3285,"ARG_OF_PERICENTER":74.4923,"MEAN_ANOMALY":285.6377,"EPHEMERIS_TYPE":0,"CLASSIFICATION_TYPE":"U","NORAD_CAT_ID":54664,"ELEMENT_SET_NO":999,"REV_AT_EPOCH":15340,"BSTAR":0.0001007863,"MEAN_MOTION_DOT":5.5e-7,"MEAN_MOTION_DDOT":0},{"OBJECT_NAME":"ONEWEB-0601","OBJECT_ID":"2022-166Z","EPOCH":"2026-01-31T04:12:03.422304","MEAN_MOTION":13.2182772,"ECCENTRICITY":0.00017463,"INCLINATION":87.9199,"RA_OF_ASC_NODE":271.3323,"ARG_OF_PERICENTER":73.1903,"MEAN_ANOMALY":286.9422,"EPHEMERIS_TYPE":0,"CLASSIFICATION_TYPE":"U","NORAD_CAT_ID":54665,"ELEMENT_SET_NO":999,"REV_AT_EPOCH":15360,"BSTAR":0.00014919396,"MEAN_MOTION_DOT":7.5e-7,"MEAN_MOTION_DDOT":0}]
