ONEWEB-0582             
1 54649U 22166H   26031.12073143  .00000053  00000+0  96640-4 0  9994
2 54649  87.9197 271.3206 0001869  66.4184 293.7146 13.21827796153417
ONEWEB-0583             
1 54650U 22166J   26031.13225490  .00000098  00000+0  20549-3 0  9994
2 54650  87.9196 271.3419 0001499  75.0788 285.0512 13.21827824153423
ONEWEB-0584             
1 54651U 22166K   26031.15200239  .00000169  00000+0  37810-3 0  9999
2 54651  87.9201 271.3254 0001844  75.0599 285.0739 13.21828314153417
ONEWEB-0585             
1 54652U 22166L   26031.17668431  .00000078  00000+0  15685-3 0  9999
2 54652  87.9199 271.3049 0001532  84.7209 275.4099 13.21824566153423
ONEWEB-0586             
1 54653U 22166M   26031.11414738  .00000095  00000+0  19738-3 0  9995
2 54653  87.9199 271.3426 0001573  75.6815 284.4494 13.21824378153419
ONEWEB-0587             
1 54654U 22166N   26031.12402284  .00000068  00000+0  13253-3 0  9996
2 54654  87.9205 271.3009 0001446  94.8502 265.2797 13.21827787153577
ONEWEB-0589             
1 54655U 22166P   26030.95946561  .00000049  00000+0  86466-4 0  9994
2 54655  87.9198 271.3637 0002240  66.2685 293.8684 13.21827677153417
ONEWEB-0590             
1 54656U 22166Q   26031.13540328  .00000118  00000+0  25429-3 0  9995
2 54656  87.9199 271.3058 0001889  88.9410 271.1941 13.21827922153420
ONEWEB-0591             
1 54657U 22166R   26031.22276476  .00000095  00000+0  19773-3 0  9995
2 54657  87.9199 271.3114 0001639  83.9929 276.1392 13.21825321153467
ONEWEB-0592             
1 54658U 22166S   26031.15036519  .00000054  00000+0  99393-4 0  9992
2 54658  87.9208 271.2936 0001622  80.8659 279.2658 13.21825476153334
ONEWEB-0593             
1 54659U 22166T   26031.17338722  .00000080  00000+0  16188-3 0  9995
2 54659  87.9199 271.3114 0001525  74.9758 285.1544 13.21827629153443
ONEWEB-0594             
1 54660U 22166U   26031.11744878  .00000014  00000+0  18923-5 0  9992
2 54660  87.9195 271.3405 0001482  81.5321 278.5981 13.21824662153452
ONEWEB-0595             
1 54661U 22166V   26031.17009376 -.00000171  00000+0 -44660-3 0  9997
2 54661  87.9195 271.3019 0001527  89.5758 270.5551 13.21825146153437
ONEWEB-0596             
1 54662U 22166W   26031.21946865  .00000050  00000+0  90652-4 0  9993
2 54662  87.9199 271.3100 0001570  83.6805 276.4508 13.21824737153442
ONEWEB-0597             
1 54663U 22166X   26031.04997380  .00000097  00000+0  20343-3 0  9993
2 54663  87.9201 271.3489 0001606  76.9366 283.1947 13.21828440153429
ONEWEB-0600             
1 54664U 22166Y   26031.10757332  .00000055  00000+0  10079-3 0  9991
2 54664  87.9198 271.3285 0001511  74.4923 285.6377 13.21827183153401
ONEWEB-0601             
1 54665U 22166Z   26031.17503961  .00000075  00000+0  14919-3 0  9995
2 54665  87.9199 271.3323 0001746  73.1903 286.9422 13.21827720153604
